[{"OBJECT_NAME":"CZ-2F DEB","OBJECT_ID":"2026-024G","EPOCH":"2026-03-05T22:32:52.867392","MEAN_MOTION":14.99762063,"ECCENTRICITY":0.03256923,"INCLINATION":49.8324,"RA_OF_ASC_NODE":40.5626,"ARG_OF_PERICENTER":252.551,"MEAN_ANOMALY":103.9588,"EPHEMERIS_TYPE":0,"CLASSIFICATION_TYPE":"U","NORAD_CAT_ID":67720,"ELEMENT_SET_NO":999,"REV_AT_EPOCH":399,"BSTAR":0.0037462601,"MEAN_MOTION_DOT":0.00151618,"MEAN_MOTION_DDOT":0},{"OBJECT_NAME":"STARLINK-36772","OBJECT_ID":"2026-026A","EPOCH":"2026-03-05T22:00:01.999584","MEAN_MOTION":15.62162207,"ECCENTRICITY":0.0001586,"INCLINATION":97.2834,"RA_OF_ASC_NODE":119.3627,"ARG_OF_PERICENTER":63.0437,"MEAN_ANOMALY":304.5944,"EPHEMERIS_TYPE":0,"CLASSIFICATION_TYPE":"U","NORAD_CAT_ID":67721,"ELEMENT_SET_NO":999,"REV_AT_EPOCH":470,"BSTAR":-0.025008915,"MEAN_MOTION_DOT":-0.01935758,"MEAN_MOTION_DDOT":0},{"OBJECT_NAME":"STARLINK-36796","OBJECT_ID":"2026-026B","EPOCH":"2026-03-05T22:00:01.999584","MEAN_MOTION":15.61266693,"ECCENTRICITY":0.00014103,"INCLINATION":97.2837,"RA_OF_ASC_NODE":119.3634,"ARG_OF_PERICENTER":78.6253,"MEAN_ANOMALY":282.4879,"EPHEMERIS_TYPE":0,"CLASSIFICATION_TYPE":"U","NORAD_CAT_ID":67722,"ELEMENT_SET_NO":999,"REV_AT_EPOCH":470,"BSTAR":-0.025159858,"MEAN_MOTION_DOT":-0.0188691,"MEAN_MOTION_DDOT":0},{"OBJECT_NAME":"STARLINK-36369","OBJECT_ID":"2026-026C","EPOCH":"2026-03-05T22:00:01.999584","MEAN_MOTION":15.61692674,"ECCENTRICITY":0.00016347,"INCLINATION":97.2835,"RA_OF_ASC_NODE":119.3654,"ARG_OF_PERICENTER":59.9214,"MEAN_ANOMALY":313.6575,"EPHEMERIS_TYPE":0,"CLASSIFICATION_TYPE":"U","NORAD_CAT_ID":67723,"ELEMENT_SET_NO":999,"REV_AT_EPOCH":470,"BSTAR":-0.025465453,"MEAN_MOTION_DOT":-0.01935439,"MEAN_MOTION_DDOT":0},{"OBJECT_NAME":"STARLINK-36752","OBJECT_ID":"2026-026D","EPOCH":"2026-03-05T22:00:01.999584","MEAN_MOTION":15.62987082,"ECCENTRICITY":0.00016964,"INCLINATION":97.2837,"RA_OF_ASC_NODE":119.3777,"ARG_OF_PERICENTER":63.7102,"MEAN_ANOMALY":337.9272,"EPHEMERIS_TYPE":0,"CLASSIFICATION_TYPE":"U","NORAD_CAT_ID":67724,"ELEMENT_SET_NO":999,"REV_AT_EPOCH":470,"BSTAR":-0.024320698,"MEAN_MOTION_DOT":-0.01943398,"MEAN_MOTION_DDOT":0},{"OBJECT_NAME":"STARLINK-36754","OBJECT_ID":"2026-026E","EPOCH":"2026-03-05T22:00:01.999584","MEAN_MOTION":15.60370836,"ECCENTRICITY":0.00014028,"INCLINATION":97.284,"RA_OF_ASC_NODE":119.3657,"ARG_OF_PERICENTER":75.3486,"MEAN_ANOMALY":290.084,"EPHEMERIS_TYPE":0,"CLASSIFICATION_TYPE":"U","NORAD_CAT_ID":67725,"ELEMENT_SET_NO":999,"REV_AT_EPOCH":470,"BSTAR":-0.025924171,"MEAN_MOTION_DOT":-0.01879126,"MEAN_MOTION_DDOT":0},{"OBJECT_NAME":"STARLINK-36755","OBJECT_ID":"2026-026F","EPOCH":"2026-03-05T22:00:01.999584","MEAN_MOTION":15.57921961,"ECCENTRICITY":0.00016251,"INCLINATION":97.2831,"RA_OF_ASC_NODE":119.3484,"ARG_OF_PERICENTER":89.2348,"MEAN_ANOMALY":238.5782,"EPHEMERIS_TYPE":0,"CLASSIFICATION_TYPE":"U","NORAD_CAT_ID":67726,"ELEMENT_SET_NO":999,"REV_AT_EPOCH":470,"BSTAR":-0.028083849,"MEAN_MOTION_DOT":-0.01857292,"MEAN_MOTION_DDOT":0},{"OBJECT_NAME":"STARLINK-36741","OBJECT_ID":"2026-026G","EPOCH":"2026-03-05T22:00:01.999584","MEAN_MOTION":15.59042612,"ECCENTRICITY":0.00013797,"INCLINATION":97.2834,"RA_OF_ASC_NODE":119.3596,"ARG_OF_PERICENTER":85.7006,"MEAN_ANOMALY":268.5003,"EPHEMERIS_TYPE":0,"CLASSIFICATION_TYPE":"U","NORAD_CAT_ID":67727,"ELEMENT_SET_NO":999,"REV_AT_EPOCH":470,"BSTAR":-0.027084172,"MEAN_MOTION_DOT":-0.01867405,"MEAN_MOTION_DDOT":0},{"OBJECT_NAME":"STARLINK-36757","OBJECT_ID":"2026-026H","EPOCH":"2026-03-05T22:00:01.999584","MEAN_MOTION":15.63544126,"ECCENTRICITY":0.00018455,"INCLINATION":97.2837,"RA_OF_ASC_NODE":119.3922,"ARG_OF_PERICENTER":61.6971,"MEAN_ANOMALY":13.8662,"EPHEMERIS_TYPE":0,"CLASSIFICATION_TYPE":"U","NORAD_CAT_ID":67728,"ELEMENT_SET_NO":999,"REV_AT_EPOCH":470,"BSTAR":-0.023764146,"MEAN_MOTION_DOT":-0.0194145,"MEAN_MOTION_DDOT":0},{"OBJECT_NAME":"STARLINK-36751","OBJECT_ID":"2026-026J","EPOCH":"2026-03-05T22:00:01.999584","MEAN_MOTION":15.64113869,"ECCENTRICITY":0.00018539,"INCLINATION":97.2839,"RA_OF_ASC_NODE":119.4019,"ARG_OF_PERICENTER":64.4631,"MEAN_ANOMALY":33.4243,"EPHEMERIS_TYPE":0,"CLASSIFICATION_TYPE":"U","NORAD_CAT_ID":67729,"ELEMENT_SET_NO":999,"REV_AT_EPOCH":470,"BSTAR":-0.023269299,"MEAN_MOTION_DOT":-0.01944051,"MEAN_MOTION_DDOT":0},{"OBJECT_NAME":"STARLINK-36747","OBJECT_ID":"2026-026K","EPOCH":"2026-03-05T22:00:01.999584","MEAN_MOTION":15.64012451,"ECCENTRICITY":0.00018277,"INCLINATION":97.2837,"RA_OF_ASC_NODE":119.3977,"ARG_OF_PERICENTER":61.8054,"MEAN_ANOMALY":26.0975,"EPHEMERIS_TYPE":0,"CLASSIFICATION_TYPE":"U","NORAD_CAT_ID":67730,"ELEMENT_SET_NO":999,"REV_AT_EPOCH":470,"BSTAR":-0.023317533,"MEAN_MOTION_DOT":-0.0194068,"MEAN_MOTION_DDOT":0},{"OBJECT_NAME":"STARLINK-36315","OBJECT_ID":"2026-026L","EPOCH":"2026-03-05T22:00:01.999584","MEAN_MOTION":15.64289192,"ECCENTRICITY":0.00017045,"INCLINATION":97.2838,"RA_OF_ASC_NODE":119.4057,"ARG_OF_PERICENTER":76.179,"MEAN_ANOMALY":29.7053,"EPHEMERIS_TYPE":0,"CLASSIFICATION_TYPE":"U","NORAD_CAT_ID":67731,"ELEMENT_SET_NO":999,"REV_AT_EPOCH":470,"BSTAR":-0.0230938,"MEAN_MOTION_DOT":-0.01942892,"MEAN_MOTION_DDOT":0},{"OBJECT_NAME":"STARLINK-36260","OBJECT_ID":"2026-026M","EPOCH":"2026-03-05T22:00:01.999584","MEAN_MOTION":15.6466989,"ECCENTRICITY":0.00019834,"INCLINATION":97.2837,"RA_OF_ASC_NODE":119.4107,"ARG_OF_PERICENTER":71.3044,"MEAN_ANOMALY":46.615,"EPHEMERIS_TYPE":0,"CLASSIFICATION_TYPE":"U","NORAD_CAT_ID":67732,"ELEMENT_SET_NO":999,"REV_AT_EPOCH":470,"BSTAR":-0.022766262,"MEAN_MOTION_DOT":-0.01944597,"MEAN_MOTION_DDOT":0},{"OBJECT_NAME":"STARLINK-36746","OBJECT_ID":"2026-026N","EPOCH":"2026-03-05T22:00:01.999584","MEAN_MOTION":15.49229129,"ECCENTRICITY":0.00014259,"INCLINATION":97.2843,"RA_OF_ASC_NODE":119.2245,"ARG_OF_PERICENTER":63.367,"MEAN_ANOMALY":337.1826,"EPHEMERIS_TYPE":0,"CLASSIFICATION_TYPE":"U","NORAD_CAT_ID":67733,"ELEMENT_SET_NO":999,"REV_AT_EPOCH":470,"BSTAR":-0.0013104242,"MEAN_MOTION_DOT":-0.00070824,"MEAN_MOTION_DDOT":0},{"OBJECT_NAME":"STARLINK-36749","OBJECT_ID":"2026-026P","EPOCH":"2026-03-05T22:00:01.999584","MEAN_MOTION":15.58374739,"ECCENTRICITY":0.00014567,"INCLINATION":97.2842,"RA_OF_ASC_NODE":119.375,"ARG_OF_PERICENTER":70.1544,"MEAN_ANOMALY":316.1592,"EPHEMERIS_TYPE":0,"CLASSIFICATION_TYPE":"U","NORAD_CAT_ID":67734,"ELEMENT_SET_NO":999,"REV_AT_EPOCH":470,"BSTAR":-0.028175265,"MEAN_MOTION_DOT":-0.01890995,"MEAN_MOTION_DDOT":0},{"OBJECT_NAME":"STARLINK-36691","OBJECT_ID":"2026-026Q","EPOCH":"2026-03-05T22:00:01.999584","MEAN_MOTION":15.65505127,"ECCENTRICITY":0.00019445,"INCLINATION":97.2841,"RA_OF_ASC_NODE":119.4285,"ARG_OF_PERICENTER":75.8824,"MEAN_ANOMALY":84.3612,"EPHEMERIS_TYPE":0,"CLASSIFICATION_TYPE":"U","NORAD_CAT_ID":67735,"ELEMENT_SET_NO":999,"REV_AT_EPOCH":484,"BSTAR":-0.022024084,"MEAN_MOTION_DOT":-0.01945034,"MEAN_MOTION_DDOT":0},{"OBJECT_NAME":"STARLINK-36317","OBJECT_ID":"2026-026R","EPOCH":"2026-03-05T22:00:01.999584","MEAN_MOTION":15.65248556,"ECCENTRICITY":0.00018505,"INCLINATION":97.2842,"RA_OF_ASC_NODE":119.4232,"ARG_OF_PERICENTER":70.7529,"MEAN_ANOMALY":76.659,"EPHEMERIS_TYPE":0,"CLASSIFICATION_TYPE":"U","NORAD_CAT_ID":67736,"ELEMENT_SET_NO":999,"REV_AT_EPOCH":470,"BSTAR":-0.022202866,"MEAN_MOTION_DOT":-0.01941173,"MEAN_MOTION_DDOT":0},{"OBJECT_NAME":"STARLINK-36330","OBJECT_ID":"2026-026S","EPOCH":"2026-03-05T22:00:01.999584","MEAN_MOTION":15.65624575,"ECCENTRICITY":0.00022052,"INCLINATION":97.2843,"RA_OF_ASC_NODE":119.4318,"ARG_OF_PERICENTER":75.0834,"MEAN_ANOMALY":92.7372,"EPHEMERIS_TYPE":0,"CLASSIFICATION_TYPE":"U","NORAD_CAT_ID":67737,"ELEMENT_SET_NO":999,"REV_AT_EPOCH":470,"BSTAR":-0.023108385,"MEAN_MOTION_DOT":-0.02037974,"MEAN_MOTION_DDOT":0},{"OBJECT_NAME":"STARLINK-36327","OBJECT_ID":"2026-026T","EPOCH":"2026-03-05T22:00:01.999584","MEAN_MOTION":15.65890556,"ECCENTRICITY":0.00019048,"INCLINATION":97.2844,"RA_OF_ASC_NODE":119.4369,"ARG_OF_PERICENTER":73.0514,"MEAN_ANOMALY":106.4554,"EPHEMERIS_TYPE":0,"CLASSIFICATION_TYPE":"U","NORAD_CAT_ID":67738,"ELEMENT_SET_NO":999,"REV_AT_EPOCH":470,"BSTAR":-0.021643024,"MEAN_MOTION_DOT":-0.01941644,"MEAN_MOTION_DDOT":0},{"OBJECT_NAME":"STARLINK-36329","OBJECT_ID":"2026-026U","EPOCH":"2026-03-05T22:00:01.999584","MEAN_MOTION":15.66929894,"ECCENTRICITY":0.00017786,"INCLINATION":97.2843,"RA_OF_ASC_NODE":119.4602,"ARG_OF_PERICENTER":77.3207,"MEAN_ANOMALY":163.0544,"EPHEMERIS_TYPE":0,"CLASSIFICATION_TYPE":"U","NORAD_CAT_ID":67739,"ELEMENT_SET_NO":999,"REV_AT_EPOCH":470,"BSTAR":-0.020865818,"MEAN_MOTION_DOT":-0.01950973,"MEAN_MOTION_DDOT":0},{"OBJECT_NAME":"STARLINK-36737","OBJECT_ID":"2026-026V","EPOCH":"2026-03-05T22:00:01.999584","MEAN_MOTION":15.66049226,"ECCENTRICITY":0.00017411,"INCLINATION":97.2845,"RA_OF_ASC_NODE":119.4413,"ARG_OF_PERICENTER":75.2629,"MEAN_ANOMALY":114.9539,"EPHEMERIS_TYPE":0,"CLASSIFICATION_TYPE":"U","NORAD_CAT_ID":67740,"ELEMENT_SET_NO":999,"REV_AT_EPOCH":470,"BSTAR":-0.021623947,"MEAN_MOTION_DOT":-0.01951005,"MEAN_MOTION_DDOT":0},{"OBJECT_NAME":"STARLINK-36740","OBJECT_ID":"2026-026W","EPOCH":"2026-03-05T22:00:01.999584","MEAN_MOTION":15.61780908,"ECCENTRICITY":0.00019284,"INCLINATION":97.2842,"RA_OF_ASC_NODE":119.428,"ARG_OF_PERICENTER":73.8523,"MEAN_ANOMALY":83.782,"EPHEMERIS_TYPE":0,"CLASSIFICATION_TYPE":"U","NORAD_CAT_ID":67741,"ELEMENT_SET_NO":999,"REV_AT_EPOCH":470,"BSTAR":-0.025383779,"MEAN_MOTION_DOT":-0.01936032,"MEAN_MOTION_DDOT":0},{"OBJECT_NAME":"STARLINK-36693","OBJECT_ID":"2026-026X","EPOCH":"2026-03-05T22:00:01.999584","MEAN_MOTION":15.62447216,"ECCENTRICITY":0.00019085,"INCLINATION":97.2839,"RA_OF_ASC_NODE":119.4228,"ARG_OF_PERICENTER":75.5272,"MEAN_ANOMALY":70.4603,"EPHEMERIS_TYPE":0,"CLASSIFICATION_TYPE":"U","NORAD_CAT_ID":67742,"ELEMENT_SET_NO":999,"REV_AT_EPOCH":484,"BSTAR":-0.024689359,"MEAN_MOTION_DOT":-0.01933058,"MEAN_MOTION_DDOT":0}]
